[{"OBJECT_NAME":"ONEWEB-0290","OBJECT_ID":"2021-075F","EPOCH":"2025-10-23T13:28:24.592800","MEAN_MOTION":13.17633141,"ECCENTRICITY":0.0002452,"INCLINATION":87.9115,"RA_OF_ASC_NODE":52.8954,"ARG_OF_PERICENTER":104.7907,"MEAN_ANOMALY":255.3496,"EPHEMERIS_TYPE":0,"CLASSIFICATION_TYPE":"U","NORAD_CAT_ID":49080,"ELEMENT_SET_NO":999,"REV_AT_EPOCH":20245,"BSTAR":-0.0049596,"MEAN_MOTION_DOT":-1.912e-5,"MEAN_MOTION_DDOT":0},{"OBJECT_NAME":"ONEWEB-0291","OBJECT_ID":"2021-075G","EPOCH":"2025-10-23T14:55:51.303648","MEAN_MOTION":13.17649083,"ECCENTRICITY":0.0001916,"INCLINATION":87.912,"RA_OF_ASC_NODE":52.889,"ARG_OF_PERICENTER":89.4895,"MEAN_ANOMALY":270.6456,"EPHEMERIS_TYPE":0,"CLASSIFICATION_TYPE":"U","NORAD_CAT_ID":49081,"ELEMENT_SET_NO":999,"REV_AT_EPOCH":20245,"BSTAR":0.00015981,"MEAN_MOTION_DOT":7.5e-7,"MEAN_MOTION_DDOT":0},{"OBJECT_NAME":"ONEWEB-0293","OBJECT_ID":"2021-075H","EPOCH":"2025-10-23T13:42:57.269088","MEAN_MOTION":13.17650295,"ECCENTRICITY":0.0001805,"INCLINATION":87.9112,"RA_OF_ASC_NODE":52.9246,"ARG_OF_PERICENTER":99.2811,"MEAN_ANOMALY":260.8525,"EPHEMERIS_TYPE":0,"CLASSIFICATION_TYPE":"U","NORAD_CAT_ID":49082,"ELEMENT_SET_NO":999,"REV_AT_EPOCH":20247,"BSTAR":7.3958e-5,"MEAN_MOTION_DOT":4.2e-7,"MEAN_MOTION_DDOT":0},{"OBJECT_NAME":"ONEWEB-0294","OBJECT_ID":"2021-075J","EPOCH":"2025-10-23T16:32:32.604000","MEAN_MOTION":13.12442778,"ECCENTRICITY":0.0002239,"INCLINATION":87.897,"RA_OF_ASC_NODE":37.6345,"ARG_OF_PERICENTER":99.7107,"MEAN_ANOMALY":260.4274,"EPHEMERIS_TYPE":0,"CLASSIFICATION_TYPE":"U","NORAD_CAT_ID":49083,"ELEMENT_SET_NO":999,"REV_AT_EPOCH":20355,"BSTAR":-0.0010894,"MEAN_MOTION_DOT":-3.79e-6,"MEAN_MOTION_DDOT":0},{"OBJECT_NAME":"ONEWEB-0295","OBJECT_ID":"2021-075K","EPOCH":"2025-10-23T13:41:42.806112","MEAN_MOTION":13.17647434,"ECCENTRICITY":0.000182,"INCLINATION":87.9111,"RA_OF_ASC_NODE":52.9293,"ARG_OF_PERICENTER":87.9807,"MEAN_ANOMALY":272.1533,"EPHEMERIS_TYPE":0,"CLASSIFICATION_TYPE":"U","NORAD_CAT_ID":49084,"ELEMENT_SET_NO":999,"REV_AT_EPOCH":20243,"BSTAR":7.2518e-5,"MEAN_MOTION_DOT":4.1e-7,"MEAN_MOTION_DDOT":0},{"OBJECT_NAME":"ONEWEB-0296","OBJECT_ID":"2021-075L","EPOCH":"2025-10-23T16:04:31.418112","MEAN_MOTION":13.12443695,"ECCENTRICITY":0.0002097,"INCLINATION":87.8967,"RA_OF_ASC_NODE":37.644,"ARG_OF_PERICENTER":90.2672,"MEAN_ANOMALY":269.8697,"EPHEMERIS_TYPE":0,"CLASSIFICATION_TYPE":"U","NORAD_CAT_ID":49085,"ELEMENT_SET_NO":999,"REV_AT_EPOCH":20355,"BSTAR":0.00069234,"MEAN_MOTION_DOT":2.62e-6,"MEAN_MOTION_DDOT":0},{"OBJECT_NAME":"ONEWEB-0297","OBJECT_ID":"2021-075M","EPOCH":"2025-10-23T13:09:19.674432","MEAN_MOTION":13.12444654,"ECCENTRICITY":0.0001683,"INCLINATION":87.8963,"RA_OF_ASC_NODE":37.7032,"ARG_OF_PERICENTER":98.5342,"MEAN_ANOMALY":261.5977,"EPHEMERIS_TYPE":0,"CLASSIFICATION_TYPE":"U","NORAD_CAT_ID":49086,"ELEMENT_SET_NO":999,"REV_AT_EPOCH":20414,"BSTAR":-0.00091772,"MEAN_MOTION_DOT":-3.17e-6,"MEAN_MOTION_DDOT":0},{"OBJECT_NAME":"ONEWEB-0298","OBJECT_ID":"2021-075N","EPOCH":"2025-10-23T13:48:00.749088","MEAN_MOTION":13.17650316,"ECCENTRICITY":0.0001623,"INCLINATION":87.9116,"RA_OF_ASC_NODE":52.9244,"ARG_OF_PERICENTER":100.3479,"MEAN_ANOMALY":259.7835,"EPHEMERIS_TYPE":0,"CLASSIFICATION_TYPE":"U","NORAD_CAT_ID":49087,"ELEMENT_SET_NO":999,"REV_AT_EPOCH":20246,"BSTAR":0.00016441,"MEAN_MOTION_DOT":7.7e-7,"MEAN_MOTION_DDOT":0},{"OBJECT_NAME":"ONEWEB-0299","OBJECT_ID":"2021-075P","EPOCH":"2025-10-23T13:50:14.504064","MEAN_MOTION":13.17648711,"ECCENTRICITY":0.0001633,"INCLINATION":87.9122,"RA_OF_ASC_NODE":52.882,"ARG_OF_PERICENTER":93.7785,"MEAN_ANOMALY":266.3533,"EPHEMERIS_TYPE":0,"CLASSIFICATION_TYPE":"U","NORAD_CAT_ID":49088,"ELEMENT_SET_NO":999,"REV_AT_EPOCH":20244,"BSTAR":0.00015039,"MEAN_MOTION_DOT":7.1e-7,"MEAN_MOTION_DDOT":0},{"OBJECT_NAME":"ONEWEB-0300","OBJECT_ID":"2021-075Q","EPOCH":"2025-10-23T12:57:39.156192","MEAN_MOTION":13.12443445,"ECCENTRICITY":0.0001439,"INCLINATION":87.8972,"RA_OF_ASC_NODE":37.6606,"ARG_OF_PERICENTER":108.4123,"MEAN_ANOMALY":251.7162,"EPHEMERIS_TYPE":0,"CLASSIFICATION_TYPE":"U","NORAD_CAT_ID":49089,"ELEMENT_SET_NO":999,"REV_AT_EPOCH":20416,"BSTAR":-0.00091909,"MEAN_MOTION_DOT":-3.18e-6,"MEAN_MOTION_DDOT":0},{"OBJECT_NAME":"ONEWEB-0301","OBJECT_ID":"2021-075R","EPOCH":"2025-10-23T16:13:52.131648","MEAN_MOTION":13.12440919,"ECCENTRICITY":0.0001222,"INCLINATION":87.8983,"RA_OF_ASC_NODE":37.6372,"ARG_OF_PERICENTER":120.9075,"MEAN_ANOMALY":239.2174,"EPHEMERIS_TYPE":0,"CLASSIFICATION_TYPE":"U","NORAD_CAT_ID":49090,"ELEMENT_SET_NO":999,"REV_AT_EPOCH":20354,"BSTAR":0.0043256,"MEAN_MOTION_DOT":1.569e-5,"MEAN_MOTION_DDOT":0},{"OBJECT_NAME":"ONEWEB-0302","OBJECT_ID":"2021-075S","EPOCH":"2025-10-23T15:55:10.216416","MEAN_MOTION":13.12444358,"ECCENTRICITY":0.0002061,"INCLINATION":87.897,"RA_OF_ASC_NODE":37.6469,"ARG_OF_PERICENTER":97.951,"MEAN_ANOMALY":262.1853,"EPHEMERIS_TYPE":0,"CLASSIFICATION_TYPE":"U","NORAD_CAT_ID":49091,"ELEMENT_SET_NO":999,"REV_AT_EPOCH":20352,"BSTAR":0.0010944,"MEAN_MOTION_DOT":4.06e-6,"MEAN_MOTION_DDOT":0},{"OBJECT_NAME":"ONEWEB-0304","OBJECT_ID":"2021-075T","EPOCH":"2025-10-23T15:03:08.606016","MEAN_MOTION":13.17649585,"ECCENTRICITY":0.0001716,"INCLINATION":87.9119,"RA_OF_ASC_NODE":52.9026,"ARG_OF_PERICENTER":94.7433,"MEAN_ANOMALY":265.3894,"EPHEMERIS_TYPE":0,"CLASSIFICATION_TYPE":"U","NORAD_CAT_ID":49092,"ELEMENT_SET_NO":999,"REV_AT_EPOCH":20242,"BSTAR":0.00016858,"MEAN_MOTION_DOT":7.8e-7,"MEAN_MOTION_DDOT":0},{"OBJECT_NAME":"ONEWEB-0305","OBJECT_ID":"2021-075U","EPOCH":"2025-10-23T14:53:25.457856","MEAN_MOTION":13.17650134,"ECCENTRICITY":0.0001705,"INCLINATION":87.912,"RA_OF_ASC_NODE":52.8807,"ARG_OF_PERICENTER":85.9405,"MEAN_ANOMALY":274.1921,"EPHEMERIS_TYPE":0,"CLASSIFICATION_TYPE":"U","NORAD_CAT_ID":49093,"ELEMENT_SET_NO":999,"REV_AT_EPOCH":20245,"BSTAR":0.00020963,"MEAN_MOTION_DOT":9.4e-7,"MEAN_MOTION_DDOT":0},{"OBJECT_NAME":"ONEWEB-0308","OBJECT_ID":"2021-075V","EPOCH":"2025-10-23T15:45:49.192704","MEAN_MOTION":13.12445387,"ECCENTRICITY":0.0001738,"INCLINATION":87.8968,"RA_OF_ASC_NODE":37.6404,"ARG_OF_PERICENTER":102.1799,"MEAN_ANOMALY":257.9524,"EPHEMERIS_TYPE":0,"CLASSIFICATION_TYPE":"U","NORAD_CAT_ID":49094,"ELEMENT_SET_NO":999,"REV_AT_EPOCH":20353,"BSTAR":0.0014016,"MEAN_MOTION_DOT":5.17e-6,"MEAN_MOTION_DDOT":0},{"OBJECT_NAME":"ONEWEB-0309","OBJECT_ID":"2021-075W","EPOCH":"2025-10-23T14:58:16.606848","MEAN_MOTION":13.1764877,"ECCENTRICITY":0.0002118,"INCLINATION":87.912,"RA_OF_ASC_NODE":52.8966,"ARG_OF_PERICENTER":96.5716,"MEAN_ANOMALY":263.5657,"EPHEMERIS_TYPE":0,"CLASSIFICATION_TYPE":"U","NORAD_CAT_ID":49095,"ELEMENT_SET_NO":999,"REV_AT_EPOCH":20242,"BSTAR":0.00015525,"MEAN_MOTION_DOT":7.3e-7,"MEAN_MOTION_DDOT":0},{"OBJECT_NAME":"ONEWEB-0310","OBJECT_ID":"2021-075X","EPOCH":"2025-10-23T16:06:51.573600","MEAN_MOTION":13.12441102,"ECCENTRICITY":0.0001849,"INCLINATION":87.8959,"RA_OF_ASC_NODE":37.6788,"ARG_OF_PERICENTER":100.595,"MEAN_ANOMALY":259.5386,"EPHEMERIS_TYPE":0,"CLASSIFICATION_TYPE":"U","NORAD_CAT_ID":49096,"ELEMENT_SET_NO":999,"REV_AT_EPOCH":20416,"BSTAR":0.00057512,"MEAN_MOTION_DOT":2.2e-6,"MEAN_MOTION_DDOT":0}]
