ONEWEB-0290             
1 49080U 21075F   25296.56139575 -.00001912  00000+0 -49596-2 0  9990
2 49080  87.9115  52.8954 0002452 104.7907 255.3496 13.17633141202455
ONEWEB-0291             
1 49081U 21075G   25296.62212157  .00000075  00000+0  15981-3 0  9995
2 49081  87.9120  52.8890 0001916  89.4895 270.6456 13.17649083202458
ONEWEB-0293             
1 49082U 21075H   25296.57149617  .00000042  00000+0  73958-4 0  9993
2 49082  87.9112  52.9246 0001805  99.2811 260.8525 13.17650295202477
ONEWEB-0294             
1 49083U 21075J   25296.68926625 -.00000379  00000+0 -10894-2 0  9991
2 49083  87.8970  37.6345 0002239  99.7107 260.4274 13.12442778203551
ONEWEB-0295             
1 49084U 21075K   25296.57063433  .00000041  00000+0  72518-4 0  9996
2 49084  87.9111  52.9293 0001820  87.9807 272.1533 13.17647434202438
ONEWEB-0296             
1 49085U 21075L   25296.66980808  .00000262  00000+0  69234-3 0  9996
2 49085  87.8967  37.6440 0002097  90.2672 269.8697 13.12443695203551
ONEWEB-0297             
1 49086U 21075M   25296.54814438 -.00000317  00000+0 -91772-3 0  9994
2 49086  87.8963  37.7032 0001683  98.5342 261.5977 13.12444654204143
ONEWEB-0298             
1 49087U 21075N   25296.57500867  .00000077  00000+0  16441-3 0  9997
2 49087  87.9116  52.9244 0001623 100.3479 259.7835 13.17650316202460
ONEWEB-0299             
1 49088U 21075P   25296.57655676  .00000071  00000+0  15039-3 0  9993
2 49088  87.9122  52.8820 0001633  93.7785 266.3533 13.17648711202446
ONEWEB-0300             
1 49089U 21075Q   25296.54003653 -.00000318  00000+0 -91909-3 0  9999
2 49089  87.8972  37.6606 0001439 108.4123 251.7162 13.12443445204165
ONEWEB-0301             
1 49090U 21075R   25296.67629782  .00001569  00000+0  43256-2 0  9990
2 49090  87.8983  37.6372 0001222 120.9075 239.2174 13.12440919203542
ONEWEB-0302             
1 49091U 21075S   25296.66331269  .00000406  00000+0  10944-2 0  9997
2 49091  87.8970  37.6469 0002061  97.9510 262.1853 13.12444358203523
ONEWEB-0304             
1 49092U 21075T   25296.62718294  .00000078  00000+0  16858-3 0  9997
2 49092  87.9119  52.9026 0001716  94.7433 265.3894 13.17649585202426
ONEWEB-0305             
1 49093U 21075U   25296.62043354  .00000094  00000+0  20963-3 0  9996
2 49093  87.9120  52.8807 0001705  85.9405 274.1921 13.17650134202458
ONEWEB-0308             
1 49094U 21075V   25296.65681936  .00000517  00000+0  14016-2 0  9995
2 49094  87.8968  37.6404 0001738 102.1799 257.9524 13.12445387203531
ONEWEB-0309             
1 49095U 21075W   25296.62380332  .00000073  00000+0  15525-3 0  9993
2 49095  87.9120  52.8966 0002118  96.5716 263.5657 13.17648770202426
ONEWEB-0310             
1 49096U 21075X   25296.67143025  .00000220  00000+0  57512-3 0  9991
2 49096  87.8959  37.6788 0001849 100.5950 259.5386 13.12441102204167
